{
"type": "FeatureCollection",
"name": "addresses",
"crs": { "type": "name", "properties": { "name": "urn:ogc:def:crs:OGC:1.3:CRS84" } },
"features": [
{ "type": "Feature", "properties": { "osm_id": 12100710269, "amenity": "university", "addr:housenumber": "amphithéâtre 1003", "name": "Yaoundé 1", "shop": null, "operator": null, "leisure": null, "natural": null, "description": null, "addr:street": null, "addr:postcode": null, "opening_hours": null, "operator:type": null, "addr:city": null, "website": null, "phone": null }, "geometry": { "type": "Point", "coordinates": [ 11.5012149, 3.8556367 ] } },
{ "type": "Feature", "properties": { "osm_id": 11932974133, "amenity": null, "addr:housenumber": "642", "name": "Centre commercial de ngoa-ekele cradat", "shop": "mall", "operator": null, "leisure": null, "natural": null, "description": "bâtiment", "addr:street": "cradat", "addr:postcode": null, "opening_hours": null, "operator:type": null, "addr:city": null, "website": null, "phone": null }, "geometry": { "type": "Point", "coordinates": [ 11.4985496, 3.8563698 ] } },
{ "type": "Feature", "properties": { "osm_id": 11402597750, "amenity": null, "addr:housenumber": "812", "name": "Jardin Botanique", "shop": null, "operator": "MOUZONG Michel Stéphane", "leisure": "park", "natural": null, "description": null, "addr:street": "3.383", "addr:postcode": "337", "opening_hours": "6h30", "operator:type": "etudiant-chercheur", "addr:city": "Yaoundé", "website": null, "phone": null }, "geometry": { "type": "Point", "coordinates": [ 11.4982003, 3.8582 ] } },
{ "type": "Feature", "properties": { "osm_id": 11925416620, "amenity": null, "addr:housenumber": "45", "name": "Jeanne", "shop": null, "operator": null, "leisure": null, "natural": "tree", "description": null, "addr:street": "rue 400", "addr:postcode": null, "opening_hours": null, "operator:type": null, "addr:city": null, "website": "webcam", "phone": "366" }, "geometry": { "type": "Point", "coordinates": [ 11.5014715, 3.8572806 ] } }
]
}
